OBJECT_NAME,OBJECT_ID,EPOCH,MEAN_MOTION,ECCENTRICITY,INCLINATION,RA_OF_ASC_NODE,ARG_OF_PERICENTER,MEAN_ANOMALY,EPHEMERIS_TYPE,CLASSIFICATION_TYPE,NORAD_CAT_ID,ELEMENT_SET_NO,REV_AT_EPOCH,BSTAR,MEAN_MOTION_DOT,MEAN_MOTION_DDOT
STARLINK-31602,2024-046B,2026-06-18T22:13:23.471904,15.34394287,.0001111,53.1609,43.3863,101.8980,258.2147,0,U,59202,999,12857,-.80068E-4,-.308E-4,0
STARLINK-31577,2024-046C,2026-06-19T14:00:01.999872,15.34389046,.00013482,53.1593,40.0360,96.0454,76.9543,0,U,59203,999,567,.14370247E-2,.48473E-3,0
STARLINK-31522,2024-046D,2026-06-19T08:52:34.224384,15.30171501,.00015544,53.1614,43.3003,104.4699,255.6475,0,U,59204,999,12861,.15880815E-3,.4343E-4,0
STARLINK-31586,2024-046E,2026-06-19T08:16:05.035872,15.30199572,.00011731,53.1598,43.1412,92.9777,267.1358,0,U,59205,999,12861,-.10693138E-4,-.676E-5,0
STARLINK-31247,2024-046F,2026-06-18T23:11:31.242048,15.30195935,.0001285,53.1601,45.0446,96.3184,263.7963,0,U,59206,999,12855,.32346E-4,.599E-5,0
STARLINK-31591,2024-046G,2026-06-19T01:23:59.097696,15.34416091,.00013412,53.1591,42.7904,93.7382,266.3774,0,U,59207,999,12859,.12161895E-3,.3737E-4,0
STARLINK-31576,2024-046H,2026-06-18T22:22:28.058016,15.34412297,.0001226,53.1590,43.4228,99.2516,260.8625,0,U,59208,999,12857,.30334E-3,.989E-4,0
STARLINK-31601,2024-046J,2026-06-19T08:42:41.069376,15.34393650,.00012219,53.1610,41.1341,95.3833,264.7309,0,U,59209,999,12864,.78566E-7,-.374E-5,0
STARLINK-31520,2024-046K,2026-06-19T13:13:26.748192,15.30194837,.00010783,53.1602,42.2942,98.8055,261.3068,0,U,59210,999,12864,-.1065257E-4,-.674E-5,0
STARLINK-31496,2024-046L,2026-06-18T18:25:32.073312,15.30198294,.00013675,53.1619,33.1610,72.1849,287.9301,0,U,59211,999,12869,.1525518E-3,.4161E-4,0
STARLINK-31492,2024-046M,2026-06-19T08:58:37.742016,15.30194748,.00006542,53.1626,43.3166,95.4186,264.6890,0,U,59212,999,12860,.59375707E-4,.14E-4,0
STARLINK-31517,2024-046N,2026-06-19T01:33:06.032160,15.34398166,.00013325,53.1604,42.8520,69.7942,290.3204,0,U,59213,999,12858,-.19320316E-4,-.1029E-4,0
STARLINK-31604,2024-046P,2026-06-18T22:19:26.647392,15.34398052,.0001578,53.1606,43.4075,88.3314,271.7869,0,U,59214,999,12856,-.2655E-5,-.466E-5,0
STARLINK-31434,2024-046Q,2026-06-19T08:39:39.461760,15.34384147,.00011769,53.1616,41.1211,95.9066,264.2071,0,U,59215,999,12863,.144817E-6,-.371E-5,0
STARLINK-31417,2024-046R,2026-06-19T08:57:07.123104,15.30189564,.00016287,53.1628,43.3162,103.3527,256.7655,0,U,59216,999,12848,.6578033E-5,-.165E-5,0
STARLINK-31499,2024-046S,2026-06-19T08:57:49.017600,15.34397650,.00013854,53.1601,41.2020,75.9766,284.1391,0,U,59217,999,12863,.32202551E-4,.712E-5,0
STARLINK-31421,2024-046T,2026-06-19T08:45:42.283872,15.34403709,.00011232,53.1618,41.1709,79.9009,280.2120,0,U,59218,999,12863,-.71689757E-4,-.2798E-4,0
STARLINK-31518,2024-046U,2026-06-19T09:03:53.431200,15.34396603,.00013293,53.1619,41.2231,89.3307,270.7848,0,U,59219,999,12863,.1549518E-5,-.324E-5,0
STARLINK-31523,2024-046V,2026-06-18T22:28:32.353248,15.34392310,.0001601,53.1619,43.4492,96.0582,264.0603,0,U,59220,999,12856,-.21592E-4,-.1106E-4,0
STARLINK-31516,2024-046W,2026-06-19T08:51:47.488896,15.34380740,.00011691,53.1608,41.1733,85.1042,275.0094,0,U,59221,999,12863,-.51018592E-4,-.2098E-4,0
STARLINK-31490,2024-046X,2026-06-19T08:54:04.320576,15.30196040,.00013466,53.1621,43.2996,93.4513,266.6642,0,U,59222,999,12860,-.998536E-6,-.389E-5,0
STARLINK-31420,2024-046Y,2026-06-19T08:49:30.878400,15.30193962,.00011127,53.1626,43.2804,92.5736,267.5392,0,U,59223,999,12860,-.11371987E-4,-.696E-5,0
STRIX-3,2024-047A,2026-06-19T14:45:46.253952,15.19404864,.00149544,97.6627,146.3260,59.4897,300.7812,0,U,59224,999,12511,.37694308E-3,.7934E-4,0
STARLINK-31305,2024-049B,2026-06-19T14:17:58.656192,15.27578844,.00013311,43.0011,287.8065,248.8077,111.2633,0,U,59232,999,12797,.55235674E-4,.1258E-4,0
STARLINK-31459,2024-049C,2026-06-19T14:40:10.785216,15.27580435,.00013371,43.0014,287.9400,272.9860,87.0839,0,U,59233,999,12798,.4261087E-4,.911E-5,0
STARLINK-31438,2024-049D,2026-06-19T13:31:57.876384,15.27577041,.0001273,43.0008,277.1980,238.4829,121.5899,0,U,59234,999,12810,.5148024E-4,.1155E-4,0
STARLINK-31467,2024-049E,2026-06-19T08:19:51.876480,15.27587636,.00010951,43.0020,289.4006,278.2566,81.8162,0,U,59235,999,12795,.85817202E-4,.2101E-4,0
STARLINK-31444,2024-049F,2026-06-19T09:53:02.900832,15.36058847,.00033052,42.9985,215.0940,43.9695,316.1423,0,U,59236,999,12878,.23878147E-3,.8292E-4,0
STARLINK-31505,2024-049G,2026-06-19T14:45:44.643456,15.27582622,.00009954,43.0027,287.9808,265.7087,94.3651,0,U,59237,999,12799,.1164381E-4,.58E-6,0
STARLINK-31494,2024-049H,2026-06-19T14:14:17.995776,15.27577677,.00013322,42.9981,287.7996,213.7692,146.3075,0,U,59238,999,12799,.34332216E-4,.683E-5,0
