STARLINK-31602          
1 59202U 24046B   26169.92596611 -.00003080  00000+0 -80068-4 0  9995
2 59202  53.1609  43.3863 0001111 101.8980 258.2147 15.34394287128570
STARLINK-31577          
1 59203U 24046C   26170.58335648  .00048473  00000+0  14370-2 0  9995
2 59203  53.1593  40.0360 0001348  96.0454  76.9543 15.34389046  5679
STARLINK-31522          
1 59204U 24046D   26170.36984056  .00004343  00000+0  15881-3 0  9992
2 59204  53.1614  43.3003 0001554 104.4699 255.6475 15.30171501128619
STARLINK-31586          
1 59205U 24046E   26170.34450273 -.00000676  00000+0 -10693-4 0  9994
2 59205  53.1598  43.1412 0001173  92.9777 267.1358 15.30199572128614
STARLINK-31247          
1 59206U 24046F   26169.96633382  .00000599  00000+0  32346-4 0  9996
2 59206  53.1601  45.0446 0001285  96.3184 263.7963 15.30195935128558
STARLINK-31591          
1 59207U 24046G   26170.05832289  .00003737  00000+0  12162-3 0  9996
2 59207  53.1591  42.7904 0001341  93.7382 266.3774 15.34416091128590
STARLINK-31576          
1 59208U 24046H   26169.93226919  .00009890  00000+0  30334-3 0  9996
2 59208  53.1590  43.4228 0001226  99.2516 260.8625 15.34412297128575
STARLINK-31601          
1 59209U 24046J   26170.36297534 -.00000374  00000+0  78566-7 0  9999
2 59209  53.1610  41.1341 0001221  95.3833 264.7309 15.34393650128645
STARLINK-31520          
1 59210U 24046K   26170.55100403 -.00000674  00000+0 -10653-4 0  9994
2 59210  53.1602  42.2942 0001078  98.8055 261.3068 15.30194837128648
STARLINK-31496          
1 59211U 24046L   26169.76773233  .00004161  00000+0  15255-3 0  9998
2 59211  53.1619  33.1610 0001367  72.1849 287.9301 15.30198294128695
STARLINK-31492          
1 59212U 24046M   26170.37404794  .00001400  00000+0  59376-4 0  9997
2 59212  53.1626  43.3166 0000654  95.4186 264.6890 15.30194748128609
STARLINK-31517          
1 59213U 24046N   26170.06465315 -.00001029  00000+0 -19320-4 0  9994
2 59213  53.1604  42.8520 0001332  69.7942 290.3204 15.34398166128588
STARLINK-31604          
1 59214U 24046P   26169.93016953 -.00000466  00000+0 -26550-5 0  9997
2 59214  53.1606  43.4075 0001578  88.3314 271.7869 15.34398052128567
STARLINK-31434          
1 59215U 24046Q   26170.36087340 -.00000371  00000+0  14482-6 0  9991
2 59215  53.1616  41.1211 0001176  95.9066 264.2071 15.34384147128638
STARLINK-31417          
1 59216U 24046R   26170.37299911 -.00000165  00000+0  65780-5 0  9999
2 59216  53.1628  43.3162 0001628 103.3527 256.7655 15.30189564128488
STARLINK-31499          
1 59217U 24046S   26170.37348400  .00000712  00000+0  32203-4 0  9998
2 59217  53.1601  41.2020 0001385  75.9766 284.1391 15.34397650128639
STARLINK-31421          
1 59218U 24046T   26170.36507273 -.00002798  00000+0 -71690-4 0  9994
2 59218  53.1618  41.1709 0001123  79.9009 280.2120 15.34403709128635
STARLINK-31518          
1 59219U 24046U   26170.37770175 -.00000324  00000+0  15495-5 0  9993
2 59219  53.1619  41.2231 0001329  89.3307 270.7848 15.34396603128637
STARLINK-31523          
1 59220U 24046V   26169.93648557 -.00001106  00000+0 -21592-4 0  9997
2 59220  53.1619  43.4492 0001601  96.0582 264.0603 15.34392310128563
STARLINK-31516          
1 59221U 24046W   26170.36929964 -.00002098  00000+0 -51019-4 0  9999
2 59221  53.1608  41.1733 0001169  85.1042 275.0094 15.34380740128632
STARLINK-31490          
1 59222U 24046X   26170.37088334 -.00000389  00000+0 -99854-6 0  9990
2 59222  53.1621  43.2996 0001346  93.4513 266.6642 15.30196040128600
STARLINK-31420          
1 59223U 24046Y   26170.36771850 -.00000696  00000+0 -11372-4 0  9990
2 59223  53.1626  43.2804 0001112  92.5736 267.5392 15.30193962128604
STRIX-3                 
1 59224U 24047A   26170.61511868  .00007934  00000+0  37694-3 0  9995
2 59224  97.6627 146.3260 0014954  59.4897 300.7812 15.19404864125111
STARLINK-31305          
1 59232U 24049B   26170.59581778  .00001258  00000+0  55236-4 0  9996
2 59232  43.0011 287.8065 0001331 248.8077 111.2633 15.27578844127976
STARLINK-31459          
1 59233U 24049C   26170.61123594  .00000911  00000+0  42611-4 0  9996
2 59233  43.0014 287.9400 0001337 272.9860  87.0839 15.27580435127986
STARLINK-31438          
1 59234U 24049D   26170.56386431  .00001155  00000+0  51480-4 0  9997
2 59234  43.0008 277.1980 0001273 238.4829 121.5899 15.27577041128109
STARLINK-31467          
1 59235U 24049E   26170.34712820  .00002101  00000+0  85817-4 0  9992
2 59235  43.0020 289.4006 0001095 278.2566  81.8162 15.27587636127955
STARLINK-31444          
1 59236U 24049F   26170.41183913  .00008292  00000+0  23878-3 0  9991
2 59236  42.9985 215.0940 0003305  43.9695 316.1423 15.36058847128785
STARLINK-31505          
1 59237U 24049G   26170.61510004  .00000058  00000+0  11644-4 0  9990
2 59237  43.0027 287.9808 0000995 265.7087  94.3651 15.27582622127990
STARLINK-31494          
1 59238U 24049H   26170.59326384  .00000683  00000+0  34332-4 0  9997
2 59238  42.9981 287.7996 0001332 213.7692 146.3075 15.27577677127997
